STARLINK-30494          
1 57970U 23151G   26068.36049035 -.00001272  00000+0 -35691-4 0  9993
2 57970  43.0027 192.4566 0001155 241.5536 118.5200 15.28417441137406
STARLINK-32548          
1 62120U 24222G   26068.54652082  .00024125  00000+0  88305-3 0  9997
2 62120  42.9986 137.2836 0001557 243.0732 116.9960 15.27590169 72736
